{
  "type": "FeatureCollection",
  "features": [
    {
      "type": "Feature",
      "properties": {
        "norad_id": 48859,
        "name": "GPS BIII-5  (PRN 11)",
        "group": "gnss",
        "lat": -19.10217085278707,
        "lon": 173.69087637271585,
        "alt_km": 20129.066506660183,
        "timestamp": "2025-12-16T19:34:24.510499+00:00",
        "meta_object_name": "GPS BIII-5  (PRN 11)",
        "meta_object_id": "2021-054A",
        "meta_epoch": "2025-12-08T04:14:32.423424",
        "meta_mean_motion": 2.00553627,
        "meta_eccentricity": 0.0024678,
        "meta_inclination": 55.2581,
        "meta_ra_of_asc_node": 340.1367,
        "meta_arg_of_pericenter": 233.3994,
        "meta_mean_anomaly": 212.8593,
        "meta_ephemeris_type": 0,
        "meta_classification_type": "U",
        "meta_norad_cat_id": 48859,
        "meta_element_set_no": 999,
        "meta_rev_at_epoch": 3292,
        "meta_bstar": 0,
        "meta_mean_motion_dot": -8.6e-07,
        "meta_mean_motion_ddot": 0,
        "tle_line1": "1 48859U 21054A   25342.17676416 -.00000086  00000+0  00000+0 0  9993",
        "tle_line2": "2 48859  55.2581 340.1367 0024678 233.3994 212.8593  2.00553627 32922"
      },
      "geometry": {
        "type": "Point",
        "coordinates": [
          173.69087637271585,
          -19.10217085278707
        ]
      }
    },
    {
      "type": "Feature",
      "properties": {
        "norad_id": 49336,
        "name": "QZS-1R (QZSS/PRN 196)",
        "group": "gnss",
        "lat": 35.50925676902292,
        "lon": 152.82875365348684,
        "alt_km": 38798.25792095828,
        "timestamp": "2025-12-16T19:34:24.510513+00:00",
        "meta_object_name": "QZS-1R (QZSS/PRN 196)",
        "meta_object_id": "2021-096A",
        "meta_epoch": "2025-12-15T14:04:19.286112",
        "meta_mean_motion": 1.00256896,
        "meta_eccentricity": 0.07559117,
        "meta_inclination": 37.0835,
        "meta_ra_of_asc_node": 82.3168,
        "meta_arg_of_pericenter": 271.3828,
        "meta_mean_anomaly": 76.4779,
        "meta_ephemeris_type": 0,
        "meta_classification_type": "U",
        "meta_norad_cat_id": 49336,
        "meta_element_set_no": 999,
        "meta_rev_at_epoch": 1516,
        "meta_bstar": 0,
        "meta_mean_motion_dot": -2.8e-06,
        "meta_mean_motion_ddot": 0,
        "tle_line1": "1 49336U 21096A   25349.58633433 -.00000280  00000+0  00000+0 0  9990",
        "tle_line2": "2 49336  37.0835  82.3168 0755911 271.3828  76.4779  1.00256896 15160"
      },
      "geometry": {
        "type": "Point",
        "coordinates": [
          152.82875365348684,
          35.50925676902292
        ]
      }
    },
    {
      "type": "Feature",
      "properties": {
        "norad_id": 49809,
        "name": "GSAT0223 (GALILEO 27)",
        "group": "gnss",
        "lat": 21.27581869926867,
        "lon": 152.0641486238095,
        "alt_km": 23221.23550031083,
        "timestamp": "2025-12-16T19:34:24.510525+00:00",
        "meta_object_name": "GSAT0223 (GALILEO 27)",
        "meta_object_id": "2021-116A",
        "meta_epoch": "2025-12-10T02:39:25.687008",
        "meta_mean_motion": 1.70475768,
        "meta_eccentricity": 0.000463,
        "meta_inclination": 57.2198,
        "meta_ra_of_asc_node": 346.7831,
        "meta_arg_of_pericenter": 251.6037,
        "meta_mean_anomaly": 107.9349,
        "meta_ephemeris_type": 0,
        "meta_classification_type": "U",
        "meta_norad_cat_id": 49809,
        "meta_element_set_no": 999,
        "meta_rev_at_epoch": 2495,
        "meta_bstar": 0,
        "meta_mean_motion_dot": -8.7e-07,
        "meta_mean_motion_ddot": 0,
        "tle_line1": "1 49809U 21116A   25344.11071397 -.00000087  00000+0  00000+0 0  9992",
        "tle_line2": "2 49809  57.2198 346.7831 0004630 251.6037 107.9349  1.70475768 24951"
      },
      "geometry": {
        "type": "Point",
        "coordinates": [
          152.0641486238095,
          21.27581869926867
        ]
      }
    },
    {
      "type": "Feature",
      "properties": {
        "norad_id": 49810,
        "name": "GSAT0224 (GALILEO 28)",
        "group": "gnss",
        "lat": -57.08133406235486,
        "lon": -108.81169009518172,
        "alt_km": 23216.737279358524,
        "timestamp": "2025-12-16T19:34:24.510536+00:00",
        "meta_object_name": "GSAT0224 (GALILEO 28)",
        "meta_object_id": "2021-116B",
        "meta_epoch": "2025-12-14T00:56:09.559392",
        "meta_mean_motion": 1.70476108,
        "meta_eccentricity": 0.00038616,
        "meta_inclination": 57.22,
        "meta_ra_of_asc_node": 346.6758,
        "meta_arg_of_pericenter": 256.6425,
        "meta_mean_anomaly": 106.3645,
        "meta_ephemeris_type": 0,
        "meta_classification_type": "U",
        "meta_norad_cat_id": 49810,
        "meta_element_set_no": 999,
        "meta_rev_at_epoch": 2505,
        "meta_bstar": 0,
        "meta_mean_motion_dot": -8.5e-07,
        "meta_mean_motion_ddot": 0,
        "tle_line1": "1 49810U 21116B   25348.03899953 -.00000085  00000+0  00000+0 0  9993",
        "tle_line2": "2 49810  57.2200 346.6758 0003861 256.6425 106.3645  1.70476108 25058"
      },
      "geometry": {
        "type": "Point",
        "coordinates": [
          -108.81169009518172,
          -57.08133406235486
        ]
      }
    },
    {
      "type": "Feature",
      "properties": {
        "norad_id": 52984,
        "name": "COSMOS 2557 (706K)",
        "group": "gnss",
        "lat": -9.762204043207586,
        "lon": 145.6232281367993,
        "alt_km": 19129.28704377257,
        "timestamp": "2025-12-16T19:34:24.510547+00:00",
        "meta_object_name": "COSMOS 2557 (706K)",
        "meta_object_id": "2022-075A",
        "meta_epoch": "2025-12-15T15:04:15.324096",
        "meta_mean_motion": 2.13101866,
        "meta_eccentricity": 0.00137175,
        "meta_inclination": 64.4076,
        "meta_ra_of_asc_node": 320.9495,
        "meta_arg_of_pericenter": 276.9327,
        "meta_mean_anomaly": 82.9073,
        "meta_ephemeris_type": 0,
        "meta_classification_type": "U",
        "meta_norad_cat_id": 52984,
        "meta_element_set_no": 999,
        "meta_rev_at_epoch": 2680,
        "meta_bstar": 0,
        "meta_mean_motion_dot": -6.9e-07,
        "meta_mean_motion_ddot": 0,
        "tle_line1": "1 52984U 22075A   25349.62795514 -.00000069  00000+0  00000+0 0  9990",
        "tle_line2": "2 52984  64.4076 320.9495 0013717 276.9327  82.9073  2.13101866 26807"
      },
      "geometry": {
        "type": "Point",
        "coordinates": [
          145.6232281367993,
          -9.762204043207586
        ]
      }
    },
    {
      "type": "Feature",
      "properties": {
        "norad_id": 54031,
        "name": "COSMOS 2559 (707K)",
        "group": "gnss",
        "lat": -26.90918681857638,
        "lon": -53.10878077015613,
        "alt_km": 19155.794902471695,
        "timestamp": "2025-12-16T19:34:24.510558+00:00",
        "meta_object_name": "COSMOS 2559 (707K)",
        "meta_object_id": "2022-130A",
        "meta_epoch": "2025-12-14T00:56:40.379136",
        "meta_mean_motion": 2.13101379,
        "meta_eccentricity": 0.00117642,
        "meta_inclination": 64.3815,
        "meta_ra_of_asc_node": 321.0953,
        "meta_arg_of_pericenter": 192.3475,
        "meta_mean_anomaly": 167.6228,
        "meta_ephemeris_type": 0,
        "meta_classification_type": "U",
        "meta_norad_cat_id": 54031,
        "meta_element_set_no": 999,
        "meta_rev_at_epoch": 2474,
        "meta_bstar": 0,
        "meta_mean_motion_dot": -6.6e-07,
        "meta_mean_motion_ddot": 0,
        "tle_line1": "1 54031U 22130A   25348.03935624 -.00000066  00000+0  00000+0 0  9996",
        "tle_line2": "2 54031  64.3815 321.0953 0011764 192.3475 167.6228  2.13101379 24741"
      },
      "geometry": {
        "type": "Point",
        "coordinates": [
          -53.10878077015613,
          -26.90918681857638
        ]
      }
    },
    {
      "type": "Feature",
      "properties": {
        "norad_id": 54377,
        "name": "COSMOS 2564 (761)",
        "group": "gnss",
        "lat": 64.70987891290214,
        "lon": -73.04932235515702,
        "alt_km": 19132.307736672075,
        "timestamp": "2025-12-16T19:34:24.510571+00:00",
        "meta_object_name": "COSMOS 2564 (761)",
        "meta_object_id": "2022-161A",
        "meta_epoch": "2025-12-15T18:15:16.365312",
        "meta_mean_motion": 2.13102109,
        "meta_eccentricity": 0.0008585,
        "meta_inclination": 64.7384,
        "meta_ra_of_asc_node": 198.7985,
        "meta_arg_of_pericenter": 204.4254,
        "meta_mean_anomaly": 155.6143,
        "meta_ephemeris_type": 0,
        "meta_classification_type": "U",
        "meta_norad_cat_id": 54377,
        "meta_element_set_no": 999,
        "meta_rev_at_epoch": 2372,
        "meta_bstar": 0,
        "meta_mean_motion_dot": 1.07e-06,
        "meta_mean_motion_ddot": 0,
        "tle_line1": "1 54377U 22161A   25349.76060608  .00000107  00000+0  00000+0 0  9990",
        "tle_line2": "2 54377  64.7384 198.7985 0008585 204.4254 155.6143  2.13102109 23722"
      },
      "geometry": {
        "type": "Point",
        "coordinates": [
          -73.04932235515702,
          64.70987891290214
        ]
      }
    }
  ]
}